{
    "links": {
        "self": "http://www.neowsapp.com/rest/v1/neo/3727177?api_key=iIulBulltgU6a56xZRHN4H3l9WmuAYTsLGpBGhQ2"
    },
    "id": "3727177",
    "neo_reference_id": "3727177",
    "name": "(2015 RD36)",
    "designation": "2015 RD36",
    "nasa_jpl_url": "http://ssd.jpl.nasa.gov/sbdb.cgi?sstr=3727177",
    "absolute_magnitude_h": 22.5,
    "estimated_diameter": {
        "kilometers": {
            "estimated_diameter_min": 0.0840533402,
            "estimated_diameter_max": 0.1879489824
        },
        "meters": {
            "estimated_diameter_min": 84.0533402073,
            "estimated_diameter_max": 187.9489824394
        },
        "miles": {
            "estimated_diameter_min": 0.0522283081,
            "estimated_diameter_max": 0.1167860472
        },
        "feet": {
            "estimated_diameter_min": 275.7655606856,
            "estimated_diameter_max": 616.6305395464
        }
    },
    "is_potentially_hazardous_asteroid": false,
    "close_approach_data": [
        {
            "close_approach_date": "1955-02-27",
            "close_approach_date_full": "1955-Feb-27 21:01",
            "epoch_date_close_approach": -468385140000,
            "relative_velocity": {
                "kilometers_per_second": "31.9221038565",
                "kilometers_per_hour": "114919.5738834587",
                "miles_per_hour": "71406.5541166413"
            },
            "miss_distance": {
                "astronomical": "0.0233538664",
                "lunar": "9.0846540296",
                "kilometers": "3493688.669704568",
                "miles": "2170877.4744283184"
            },
            "orbiting_body": "Mars"
        },
        {
            "close_approach_date": "2015-05-15",
            "close_approach_date_full": "2015-May-15 03:32",
            "epoch_date_close_approach": 1431660720000,
            "relative_velocity": {
                "kilometers_per_second": "30.6010136823",
                "kilometers_per_hour": "110163.6492561554",
                "miles_per_hour": "68451.4075058595"
            },
            "miss_distance": {
                "astronomical": "0.0206012974",
                "lunar": "8.0139046886",
                "kilometers": "3081910.210276538",
                "miles": "1915010.2044627044"
            },
            "orbiting_body": "Mars"
        },
        {
            "close_approach_date": "2015-08-31",
            "close_approach_date_full": "2015-Aug-31 18:20",
            "epoch_date_close_approach": 1441045200000,
            "relative_velocity": {
                "kilometers_per_second": "30.3144108757",
                "kilometers_per_hour": "109131.8791524199",
                "miles_per_hour": "67810.3056877911"
            },
            "miss_distance": {
                "astronomical": "0.1773843492",
                "lunar": "69.0025118388",
                "kilometers": "26536320.811656204",
                "miles": "16488905.1516714552"
            },
            "orbiting_body": "Earth"
        },
        {
            "close_approach_date": "2019-07-18",
            "close_approach_date_full": "2019-Jul-18 06:18",
            "epoch_date_close_approach": 1563430680000,
            "relative_velocity": {
                "kilometers_per_second": "34.2315102388",
                "kilometers_per_hour": "123233.43685968",
                "miles_per_hour": "76572.4652531717"
            },
            "miss_distance": {
                "astronomical": "0.1155783368",
                "lunar": "44.9599730152",
                "kilometers": "17290273.003422616",
                "miles": "10743677.4533834608"
            },
            "orbiting_body": "Venus"
        },
        {
            "close_approach_date": "2019-09-15",
            "close_approach_date_full": "2019-Sep-15 14:43",
            "epoch_date_close_approach": 1568558580000,
            "relative_velocity": {
                "kilometers_per_second": "40.2089674147",
                "kilometers_per_hour": "144752.2826930838",
                "miles_per_hour": "89943.4392100442"
            },
            "miss_distance": {
                "astronomical": "0.1563166029",
                "lunar": "60.8071585281",
                "kilometers": "23384630.839475823",
                "miles": "14530535.8137514374"
            },
            "orbiting_body": "Earth"
        }
    ],
    "orbital_data": {
        "orbit_id": "12",
        "orbit_determination_date": "2017-04-06 08:32:05",
        "first_observation_date": "2015-09-10",
        "last_observation_date": "2015-10-07",
        "data_arc_in_days": 27,
        "observations_used": 63,
        "orbit_uncertainty": "7",
        "minimum_orbit_intersection": ".00421335",
        "jupiter_tisserand_invariant": "2.577",
        "epoch_osculation": "2459000.5",
        "eccentricity": ".9251193986692592",
        "semi_major_axis": "2.543017249249682",
        "inclination": ".4433726204911163",
        "ascending_node_longitude": "17.93060898978913",
        "orbital_period": "1481.229612704475",
        "perihelion_distance": ".1904226608182626",
        "perihelion_argument": "193.8923624946376",
        "aphelion_distance": "4.895611837681102",
        "perihelion_time": "2458707.425816522492",
        "mean_anomaly": "71.22913635197001",
        "mean_motion": ".2430413198009867",
        "equinox": "J2000",
        "orbit_class": {
            "orbit_class_type": "APO",
            "orbit_class_description": "Near-Earth asteroid orbits which cross the Earth’s orbit similar to that of 1862 Apollo",
            "orbit_class_range": "a (semi-major axis) > 1.0 AU; q (perihelion) < 1.017 AU"
        }
    },
    "is_sentry_object": false
}